STARLINK-3272           
1 50187U 21125AH  26068.71468975 -.00000121  00000+0  10477-4 0  9998
2 50187  53.2168 239.0102 0001277  90.3373 269.7766 15.08836549236729
KUIPER-00148            
1 65769U 25217H   26068.27522507  .00015783  00000+0  98730-3 0  9995
2 65769  51.8794  26.5769 0008108 351.8096   8.2745 15.09536529 25078
